{
  "norad_id": 59256,
  "name": "STARLINK-31652",
  "history": [
    {
      "epoch": "2026-03-28T09:26:59.305344Z",
      "apogee_km": 476.15683576842275,
      "perigee_km": 474.32753179668725,
      "latitude_deg": -5.1170145215693826e-05,
      "longitude_deg": 126.45383076238093,
      "height_km": 476.1282638620621,
      "semi_major_axis_km": 6853.379183782555,
      "eccentricity": 0.00013346,
      "inclination_deg": 53.1601,
      "raan_deg": 94.0158,
      "arg_perigee_deg": 89.2532,
      "mean_anomaly_deg": 270.8621,
      "mean_motion_rev_day": 15.30190919
    },
    {
      "epoch": "2026-03-29T04:15:37.149120Z",
      "apogee_km": 476.10482115424657,
      "perigee_km": 474.3298023874986,
      "latitude_deg": 7.705686776617789e-05,
      "longitude_deg": -160.11697653389183,
      "height_km": 476.1450962552956,
      "semi_major_axis_km": 6853.354311770872,
      "eccentricity": 0.0001295,
      "inclination_deg": 53.1602,
      "raan_deg": 90.3751,
      "arg_perigee_deg": 91.9199,
      "mean_anomaly_deg": 268.1951,
      "mean_motion_rev_day": 15.30199249
    }
  ]
}